IRIDIUM 26              
1 24903U 97043A   25227.36787831  .00000325  00000+0  10278-3 0  9992
2 24903  86.3911  85.7521 0001946  89.1855 270.9566 14.37182080465242
IRIDIUM 22              
1 24907U 97043E   25227.62542298  .00000306  00000+0  98627-4 0  9995
2 24907  86.3918  89.2371 0002119  90.0640 270.0800 14.35990864465305
DUMMY MASS 1            
1 24925U 97048A   25227.16468588  .00000342  00000+0  35046-4 0  9994
2 24925  86.3334 108.0637 0004645 311.7736  48.3091 14.87027230513898
DUMMY MASS 2            
1 24926U 97048B   25227.60779072  .00000327  00000+0  33568-4 0  9997
2 24926  86.3336 109.4776 0005723 323.0912  36.9918 14.86779339513737
IRIDIUM 29              
1 24944U 97051A   25227.41814722  .00000340  00000+0  10920-3 0  9993
2 24944  86.3963 119.0628 0002366  85.6895 274.4573 14.36508584461776
IRIDIUM 33              
1 24946U 97051C   25227.39535195  .00000261  00000+0  84795-4 0  9990
2 24946  86.3878 118.3375 0005890 237.9833 122.0791 14.34923883461235
IRIDIUM 28              
1 24948U 97051E   25227.42385061  .00000278  00000+0  86595-4 0  9999
2 24948  86.3963 116.5418 0001663  90.5911 269.5477 14.37420252462351
IRIDIUM 36              
1 24967U 97056C   25227.51711552  .00000300  00000+0  93512-4 0  9996
2 24967  86.4022 148.0983 0002162  92.3223 267.8222 14.37647820460749
